NORAD_CAT_ID,OBJECT_NAME,OBJECT_TYPE,EPOCH,MEAN_MOTION,ECCENTRICITY,INCLINATION,RA_OF_ASC_NODE,ARG_OF_PERICENTER,MEAN_ANOMALY,BSTAR,MEAN_MOTION_DOT,MEAN_MOTION_DDOT,TLE_LINE0,TLE_LINE1,TLE_LINE2,SEMIMAJOR_AXIS,PERIOD,APOGEE,PERIGEE,DECAYED
53967.0,STARLINK-4634,PAYLOAD,2023-02-03 15:32:30,15.08831005,0.0001251,53.2157,257.1157,94.4689,265.6446,7.6194e-05,9.25e-06,0.0,0 STARLINK-4634,1 53967U 22125D   23034.64757474  .00000925  00000-0  76194-4 0  9995,2 53967  53.2157 257.1157 0001251  94.4689 265.6446 15.08831005 18791,6917.908,95.438,540.638,538.907,0.0
53967.0,STARLINK-4634,PAYLOAD,2023-02-04 20:09:27,15.0881356,0.000119,53.2184,251.7571,126.0796,234.0307,0.0004785,7.33e-05,0.0,0 STARLINK-4634,1 53967U 22125D   23035.83989953  .00007330  00000-0  47850-3 0  9999,2 53967  53.2184 251.7571 0001190 126.0796 234.0307 15.08813560 18976,6917.961,95.439,540.649,539.003,0.0
53967.0,STARLINK-4634,PAYLOAD,2023-02-04 21:44:49,15.08845747,0.0001164,53.216,251.4648,94.7857,265.3268,0.00012959,1.775e-05,0.0,0 STARLINK-4634,1 53967U 22125D   23035.90612581  .00001775  00000-0  12959-3 0  9996,2 53967  53.2160 251.4648 0001164  94.7857 265.3268 15.08845747 18911,6917.863,95.437,540.533,538.923,0.0
53967.0,STARLINK-4634,PAYLOAD,2023-02-04 23:20:12,15.08847571,0.0001177,53.216,251.1676,87.5381,272.5746,0.00014821,2.072e-05,0.0,0 STARLINK-4634,1 53967U 22125D   23035.97236448  .00002072  00000-0  14821-3 0  9998,2 53967  53.2160 251.1676 0001177  87.5381 272.5746 15.08847571 18991,6917.857,95.437,540.536,538.908,0.0
53967.0,STARLINK-4634,PAYLOAD,2023-02-05 13:38:37,15.08874907,5.93e-05,53.2188,248.4833,135.273,224.831,0.00076558,0.00011929,0.0,0 STARLINK-4634,1 53967U 22125D   23036.56848999  .00011929  00000-0  76558-3 0  9990,2 53967  53.2188 248.4833 0000593 135.2730 224.8310 15.08874907 19019,6917.774,95.435,540.049,539.228,0.0
53967.0,STARLINK-4634,PAYLOAD,2023-02-05 20:00:14,15.08836364,0.0001254,53.2161,247.3018,80.5065,279.6068,8.5321e-05,1.07e-05,0.0,0 STARLINK-4634,1 53967U 22125D   23036.83349694  .00001070  00000-0  85321-4 0  9993,2 53967  53.2161 247.3018 0001254  80.5065 279.6068 15.08836364 19126,6917.892,95.438,540.624,538.889,0.0
53967.0,STARLINK-4634,PAYLOAD,2023-02-05 21:35:37,15.08837176,0.0001233,53.2159,247.0044,84.0507,276.0626,9.0353e-05,1.15e-05,0.0,0 STARLINK-4634,1 53967U 22125D   23036.89973649  .00001150  00000-0  90353-4 0  9992,2 53967  53.2159 247.0044 0001233  84.0507 276.0626 15.08837176 19062,6917.889,95.438,540.607,538.901,0.0
53967.0,STARLINK-4634,PAYLOAD,2023-02-06 13:29:27,15.08853839,0.0001227,53.2149,244.03,84.5356,275.5776,0.00019655,2.843e-05,0.0,0 STARLINK-4634,1 53967U 22125D   23037.56212493  .00002843  00000-0  19655-3 0  9995,2 53967  53.2149 244.0300 0001227  84.5356 275.5776 15.08853839 19168,6917.838,95.437,540.552,538.854,0.0
53967.0,STARLINK-4634,PAYLOAD,2023-02-06 19:50:59,15.08860824,0.0001235,53.2147,242.8412,81.1854,278.9278,0.00031269,4.695e-05,0.0,0 STARLINK-4634,1 53967U 22125D   23037.82708049  .00004695  00000-0  31269-3 0  9993,2 53967  53.2147 242.8412 0001235  81.1854 278.9278 15.08860824 19279,6917.817,95.436,540.536,538.827,0.0
53967.0,STARLINK-4634,PAYLOAD,2023-02-07 13:20:14,15.08844647,0.0001232,53.2141,239.5703,77.5191,282.5939,0.00014566,2.031e-05,0.0,0 STARLINK-4634,1 53967U 22125D   23038.55572693  .00002031  00000-0  14566-3 0  9991,2 53967  53.2141 239.5703 0001232  77.5191 282.5939 15.08844647 19314,6917.866,95.437,540.583,538.879,0.0
53967.0,STARLINK-4634,PAYLOAD,2023-02-07 19:41:47,15.08840304,0.0001188,53.2139,238.3804,82.9824,277.1303,0.00017524,2.502e-05,0.0,0 STARLINK-4634,1 53967U 22125D   23038.82068637  .00002502  00000-0  17524-3 0  9999,2 53967  53.2139 238.3804 0001188  82.9824 277.1303 15.08840304 19426,6917.879,95.438,540.566,538.923,0.0
53967.0,STARLINK-4634,PAYLOAD,2023-02-08 13:11:02,15.08828112,0.0001364,53.2145,235.1088,91.1241,268.9907,0.00049736,7.634e-05,0.0,0 STARLINK-4634,1 53967U 22125D   23039.54933378  .00007634  00000-0  49736-3 0  9993,2 53967  53.2145 235.1088 0001364  91.1241 268.9907 15.08828112 19468,6917.917,95.438,540.725,538.838,0.0
53967.0,STARLINK-4634,PAYLOAD,2023-02-08 19:32:34,15.08839849,0.0001309,53.2152,233.9195,94.1271,265.9871,8.151e-05,1.01e-05,0.0,0 STARLINK-4634,1 53967U 22125D   23039.81429122  .00001010  00000-0  81510-4 0  9999,2 53967  53.2152 233.9195 0001309  94.1271 265.9871 15.08839849 19574,6917.881,95.438,540.651,538.84,0.0
53967.0,STARLINK-4634,PAYLOAD,2023-02-08 21:07:57,15.08842683,0.0001262,53.2149,233.6216,92.5978,267.5158,0.00015716,2.214e-05,0.0,0 STARLINK-4634,1 53967U 22125D   23039.88053052  .00002214  00000-0  15716-3 0  9992,2 53967  53.2149 233.6216 0001262  92.5978 267.5158 15.08842683 19515,6917.872,95.437,540.61,538.864,0.0
53967.0,STARLINK-4634,PAYLOAD,2023-02-09 19:23:22,15.08835989,0.000129,53.2156,229.4595,97.0502,263.0637,0.00018053,2.586e-05,0.0,0 STARLINK-4634,1 53967U 22125D   23040.80789772  .00002586  00000-0  18053-3 0  9990,2 53967  53.2156 229.4595 0001290  97.0502 263.0637 15.08835989 19727,6917.893,95.438,540.65,538.865,0.0
53967.0,STARLINK-4634,PAYLOAD,2023-02-10 04:55:41,15.08821105,0.0001186,53.2155,227.6736,89.5288,270.5839,-4.7408e-05,-1.042e-05,0.0,0 STARLINK-4634,1 53967U 22125D   23041.20534617 -.00001042  00000-0 -47408-4 0  9996,2 53967  53.2155 227.6736 0001186  89.5288 270.5839 15.08821105 19782,6917.938,95.439,540.624,538.983,0.0
53967.0,STARLINK-4634,PAYLOAD,2023-02-10 20:49:32,15.08841974,0.0001154,53.2155,224.7004,89.9007,270.2117,0.00019621,2.836e-05,0.0,0 STARLINK-4634,1 53967U 22125D   23041.86774278  .00002836  00000-0  19621-3 0  9992,2 53967  53.2155 224.7004 0001154  89.9007 270.2117 15.08841974 19812,6917.874,95.437,540.538,538.941,0.0
53967.0,STARLINK-4634,PAYLOAD,2023-02-11 04:46:28,15.08841147,0.0001172,53.2163,223.2119,82.9266,277.1859,0.00016751,2.379e-05,0.0,0 STARLINK-4634,1 53967U 22125D   23042.19894356  .00002379  00000-0  16751-3 0  9992,2 53967  53.2163 223.2119 0001172  82.9266 277.1859 15.08841147 19868,6917.877,95.437,540.553,538.931,0.0
53967.0,STARLINK-4634,PAYLOAD,2023-02-11 20:40:19,15.08845984,0.0001248,53.2155,220.2389,89.7144,270.3991,0.00025868,3.832e-05,0.0,0 STARLINK-4634,1 53967U 22125D   23042.86134186  .00003832  00000-0  25868-3 0  9998,2 53967  53.2155 220.2389 0001248  89.7144 270.3991 15.08845984 19965,6917.862,95.437,540.59,538.864,0.0
53967.0,STARLINK-4634,PAYLOAD,2023-02-12 06:12:38,15.08843721,0.0001067,53.2137,218.4554,89.4645,270.647,0.00016619,2.358e-05,0.0,0 STARLINK-4634,1 53967U 22125D   23043.25877982  .00002358  00000-0  16619-3 0  9996,2 53967  53.2137 218.4554 0001067  89.4645 270.6470 15.08843721 20098,6917.869,95.437,540.472,538.996,0.0
53967.0,STARLINK-4634,PAYLOAD,2023-02-13 10:49:35,15.0883756,0.0001143,53.2155,213.1029,78.8768,281.2353,-4.431e-05,-9.93e-06,0.0,0 STARLINK-4634,1 53967U 22125D   23044.45110249 -.00000993  00000-0 -44310-4 0  9990,2 53967  53.2155 213.1029 0001143  78.8768 281.2353 15.08837560 20272,6917.888,95.438,540.544,538.962,0.0
53967.0,STARLINK-4634,PAYLOAD,2023-02-13 18:46:30,15.08849046,0.0001172,53.2151,211.616,83.9761,276.1364,3.855e-05,3.26e-06,0.0,0 STARLINK-4634,1 53967U 22125D   23044.78229780  .00000326  00000-0  38550-4 0  9994,2 53967  53.2151 211.6160 0001172  83.9761 276.1364 15.08849046 20322,6917.853,95.437,540.529,538.907,0.0
53967.0,STARLINK-4634,PAYLOAD,2023-02-14 10:40:22,15.08839885,0.0001201,53.2145,208.6424,86.8025,273.3104,6.7593e-05,7.88e-06,0.0,0 STARLINK-4634,1 53967U 22125D   23045.44470233  .00000788  00000-0  67593-4 0  9990,2 53967  53.2145 208.6424 0001201  86.8025 273.3104 15.08839885 20424,6917.881,95.438,540.577,538.915,0.0
53967.0,STARLINK-4634,PAYLOAD,2023-02-14 18:37:17,15.08850155,0.0001177,53.2151,207.1551,88.0783,272.0344,0.00014531,2.026e-05,0.0,0 STARLINK-4634,1 53967U 22125D   23045.77589615  .00002026  00000-0  14531-3 0  9991,2 53967  53.2151 207.1551 0001177  88.0783 272.0344 15.08850155 20473,6917.849,95.437,540.529,538.9,0.0
53967.0,STARLINK-4634,PAYLOAD,2023-02-15 07:20:23,15.08836374,0.0001108,53.2159,204.7749,104.8335,255.278,9.4621e-05,1.218e-05,0.0,0 STARLINK-4634,1 53967U 22125D   23046.30582184  .00001218  00000-0  94621-4 0  9996,2 53967  53.2159 204.7749 0001108 104.8335 255.2780 15.08836374 20550,6917.891,95.438,540.523,538.99,0.0
53967.0,STARLINK-4634,PAYLOAD,2023-02-15 12:06:32,15.08838298,0.0001222,53.2157,203.8839,98.1389,261.9742,6.2559e-05,7.08e-06,0.0,0 STARLINK-4634,1 53967U 22125D   23046.50454132  .00000708  00000-0  62559-4 0  9997,2 53967  53.2157 203.8839 0001222  98.1389 261.9742 15.08838298 20514,6917.886,95.438,540.596,538.905,0.0
53967.0,STARLINK-4634,PAYLOAD,2023-02-15 16:52:41,15.08843641,0.0001039,53.2161,202.9928,87.1523,272.9588,0.00010565,1.394e-05,0.0,0 STARLINK-4634,1 53967U 22125D   23046.70325659  .00001394  00000-0  10565-3 0  9991,2 53967  53.2161 202.9928 0001039  87.1523 272.9588 15.08843641 20611,6917.869,95.437,540.453,539.015,0.0
53967.0,STARLINK-4634,PAYLOAD,2023-02-15 20:03:27,15.08852381,0.0001104,53.2159,202.3967,92.9673,267.1445,0.0001283,1.755e-05,0.0,0 STARLINK-4634,1 53967U 22125D   23046.83572960  .00001755  00000-0  12830-3 0  9992,2 53967  53.2159 202.3967 0001104  92.9673 267.1445 15.08852381 20561,6917.843,95.437,540.471,538.944,0.0
53967.0,STARLINK-4634,PAYLOAD,2023-02-16 10:21:56,15.08837917,0.0001168,53.2161,199.7217,106.6579,253.4542,3.8912e-05,3.31e-06,0.0,0 STARLINK-4634,1 53967U 22125D   23047.43189984  .00000331  00000-0  38912-4 0  9998,2 53967  53.2161 199.7217 0001168 106.6579 253.4542 15.08837917 20721,6917.887,95.438,540.56,538.944,0.0
53967.0,STARLINK-4634,PAYLOAD,2023-02-16 13:32:42,15.08840292,0.000116,53.2162,199.1279,99.7434,260.3689,6.9924e-05,8.25e-06,0.0,0 STARLINK-4634,1 53967U 22125D   23047.56437790  .00000825  00000-0  69924-4 0  9998,2 53967  53.2162 199.1279 0001160  99.7434 260.3689 15.08840292 20671,6917.879,95.438,540.547,538.942,0.0
